[{"OBJECT_NAME":"IRIDIUM 137","OBJECT_ID":"2017-083G","EPOCH":"2026-03-09T20:35:55.284000","MEAN_MOTION":14.34217602,"ECCENTRICITY":0.00024008,"INCLINATION":86.4028,"RA_OF_ASC_NODE":3.6635,"ARG_OF_PERICENTER":94.3456,"MEAN_ANOMALY":265.8014,"EPHEMERIS_TYPE":0,"CLASSIFICATION_TYPE":"U","NORAD_CAT_ID":43076,"ELEMENT_SET_NO":999,"REV_AT_EPOCH":42993,"BSTAR":5.494784e-6,"MEAN_MOTION_DOT":3.5e-7,"MEAN_MOTION_DDOT":0},{"OBJECT_NAME":"SL-3 R\/B","OBJECT_ID":"1983-109B","EPOCH":"2026-03-09T15:20:07.960128","MEAN_MOTION":14.25439425,"ECCENTRICITY":0.0103624,"INCLINATION":81.1668,"RA_OF_ASC_NODE":138.5595,"ARG_OF_PERICENTER":198.9323,"MEAN_ANOMALY":160.7993,"EPHEMERIS_TYPE":0,"CLASSIFICATION_TYPE":"U","NORAD_CAT_ID":14453,"ELEMENT_SET_NO":999,"REV_AT_EPOCH":20136,"BSTAR":6.3368e-5,"MEAN_MOTION_DOT":1.71e-6,"MEAN_MOTION_DDOT":0}]
